{
    "links": {
        "self": "http://www.neowsapp.com/rest/v1/neo/3986737?api_key=iIulBulltgU6a56xZRHN4H3l9WmuAYTsLGpBGhQ2"
    },
    "id": "3986737",
    "neo_reference_id": "3986737",
    "name": "(2020 BU)",
    "designation": "2020 BU",
    "nasa_jpl_url": "http://ssd.jpl.nasa.gov/sbdb.cgi?sstr=3986737",
    "absolute_magnitude_h": 25.92,
    "estimated_diameter": {
        "kilometers": {
            "estimated_diameter_min": 0.0174002295,
            "estimated_diameter_max": 0.038908096
        },
        "meters": {
            "estimated_diameter_min": 17.4002295067,
            "estimated_diameter_max": 38.9080960011
        },
        "miles": {
            "estimated_diameter_min": 0.010811998,
            "estimated_diameter_max": 0.0241763625
        },
        "feet": {
            "estimated_diameter_min": 57.0873689748,
            "estimated_diameter_max": 127.6512376842
        }
    },
    "is_potentially_hazardous_asteroid": false,
    "close_approach_data": [
        {
            "close_approach_date": "2020-01-22",
            "close_approach_date_full": "2020-Jan-22 03:18",
            "epoch_date_close_approach": 1579663080000,
            "relative_velocity": {
                "kilometers_per_second": "4.2304339224",
                "kilometers_per_hour": "15229.5621206005",
                "miles_per_hour": "9463.057640992"
            },
            "miss_distance": {
                "astronomical": "0.0495747834",
                "lunar": "19.2845907426",
                "kilometers": "7416282.002351358",
                "miles": "4608263.9482224204"
            },
            "orbiting_body": "Earth"
        }
    ],
    "orbital_data": {
        "orbit_id": "4",
        "orbit_determination_date": "2020-02-03 05:38:46",
        "first_observation_date": "2020-01-19",
        "last_observation_date": "2020-02-03",
        "data_arc_in_days": 15,
        "observations_used": 28,
        "orbit_uncertainty": "8",
        "minimum_orbit_intersection": ".0478875",
        "jupiter_tisserand_invariant": "4.224",
        "epoch_osculation": "2458870.5",
        "eccentricity": ".3706953743373909",
        "semi_major_axis": "1.634394956341405",
        "inclination": "1.87083026215863",
        "ascending_node_longitude": "86.29123506660531",
        "orbital_period": "763.1922419381224",
        "perihelion_distance": "1.028532306185284",
        "perihelion_argument": "31.83058238690712",
        "aphelion_distance": "2.240257606497525",
        "perihelion_time": "2458868.322010198827",
        "mean_anomaly": "1.027364123135113",
        "mean_motion": ".4717029081503529",
        "equinox": "J2000",
        "orbit_class": {
            "orbit_class_type": "AMO",
            "orbit_class_description": "Near-Earth asteroid orbits similar to that of 1221 Amor",
            "orbit_class_range": "1.017 AU < q (perihelion) < 1.3 AU"
        }
    },
    "is_sentry_object": false
}